{
    "links": {
        "self": "http://www.neowsapp.com/rest/v1/neo/3774683?api_key=iIulBulltgU6a56xZRHN4H3l9WmuAYTsLGpBGhQ2"
    },
    "id": "3774683",
    "neo_reference_id": "3774683",
    "name": "(2017 KH3)",
    "designation": "2017 KH3",
    "nasa_jpl_url": "http://ssd.jpl.nasa.gov/sbdb.cgi?sstr=3774683",
    "absolute_magnitude_h": 23.8,
    "estimated_diameter": {
        "kilometers": {
            "estimated_diameter_min": 0.046190746,
            "estimated_diameter_max": 0.1032856481
        },
        "meters": {
            "estimated_diameter_min": 46.1907460282,
            "estimated_diameter_max": 103.2856480504
        },
        "miles": {
            "estimated_diameter_min": 0.0287015901,
            "estimated_diameter_max": 0.0641787064
        },
        "feet": {
            "estimated_diameter_min": 151.544447199,
            "estimated_diameter_max": 338.8636855496
        }
    },
    "is_potentially_hazardous_asteroid": false,
    "close_approach_data": [
        {
            "close_approach_date": "2017-05-24",
            "close_approach_date_full": "2017-May-24 02:29",
            "epoch_date_close_approach": 1495592940000,
            "relative_velocity": {
                "kilometers_per_second": "20.0344092738",
                "kilometers_per_hour": "72123.8733857239",
                "miles_per_hour": "44814.9701045905"
            },
            "miss_distance": {
                "astronomical": "0.0478325612",
                "lunar": "18.6068663068",
                "kilometers": "7155649.272164644",
                "miles": "4446314.2793903272"
            },
            "orbiting_body": "Earth"
        }
    ],
    "orbital_data": {
        "orbit_id": "3",
        "orbit_determination_date": "2017-05-29 06:18:19",
        "first_observation_date": "2017-05-17",
        "last_observation_date": "2017-05-28",
        "data_arc_in_days": 11,
        "observations_used": 82,
        "orbit_uncertainty": "8",
        "minimum_orbit_intersection": ".0467409",
        "jupiter_tisserand_invariant": "4.567",
        "epoch_osculation": "2457892.5",
        "eccentricity": ".4228617531237632",
        "semi_major_axis": "1.378860596258251",
        "inclination": "31.72331922246338",
        "ascending_node_longitude": "59.92751898364904",
        "orbital_period": "591.3967972741884",
        "perihelion_distance": ".7957931872112095",
        "perihelion_argument": "262.2791216542375",
        "aphelion_distance": "1.961928005305292",
        "perihelion_time": "2457956.341788388746",
        "mean_anomaly": "321.1376931260367",
        "mean_motion": ".6087283557490991",
        "equinox": "J2000",
        "orbit_class": {
            "orbit_class_type": "APO",
            "orbit_class_description": "Near-Earth asteroid orbits which cross the Earth’s orbit similar to that of 1862 Apollo",
            "orbit_class_range": "a (semi-major axis) > 1.0 AU; q (perihelion) < 1.017 AU"
        }
    },
    "is_sentry_object": false
}